[{"OBJECT_NAME":"STARLINK-3782","OBJECT_ID":"2022-041N","EPOCH":"2026-03-09T12:32:23.871264","MEAN_MOTION":15.08835464,"ECCENTRICITY":0.0001478,"INCLINATION":53.2159,"RA_OF_ASC_NODE":100.255,"ARG_OF_PERICENTER":76.1639,"MEAN_ANOMALY":283.9517,"EPHEMERIS_TYPE":0,"CLASSIFICATION_TYPE":"U","NORAD_CAT_ID":52273,"ELEMENT_SET_NO":999,"REV_AT_EPOCH":21447,"BSTAR":-4.3246e-6,"MEAN_MOTION_DOT":-3.57e-6,"MEAN_MOTION_DDOT":0},{"OBJECT_NAME":"COSMOS 2535 DEB","OBJECT_ID":"2019-039H","EPOCH":"2026-03-09T01:37:49.505376","MEAN_MOTION":15.12536261,"ECCENTRICITY":0.00199509,"INCLINATION":97.5365,"RA_OF_ASC_NODE":108.6978,"ARG_OF_PERICENTER":50.248,"MEAN_ANOMALY":310.0505,"EPHEMERIS_TYPE":0,"CLASSIFICATION_TYPE":"U","NORAD_CAT_ID":44631,"ELEMENT_SET_NO":999,"REV_AT_EPOCH":34980,"BSTAR":0.00071319108,"MEAN_MOTION_DOT":0.00012434,"MEAN_MOTION_DDOT":0}]
